OBJECT_NAME,OBJECT_ID,EPOCH,MEAN_MOTION,ECCENTRICITY,INCLINATION,RA_OF_ASC_NODE,ARG_OF_PERICENTER,MEAN_ANOMALY,EPHEMERIS_TYPE,CLASSIFICATION_TYPE,NORAD_CAT_ID,ELEMENT_SET_NO,REV_AT_EPOCH,BSTAR,MEAN_MOTION_DOT,MEAN_MOTION_DDOT
PERSEUS-M1,2014-033AF,2026-06-30T09:59:45.505824,14.95675975,.00099666,97.9649,125.7659,251.6407,108.3730,0,U,40039,999,65261,.12619785E-3,.1344E-4,0
POLYITAN-1,2014-033AJ,2026-06-29T13:56:37.128192,15.33688122,.00088069,98.0936,208.0175,107.4053,252.8151,0,U,40042,999,65549,.53396055E-3,.17344E-3,0
TIGRISAT,2014-033AK,2026-06-30T09:19:09.725664,14.85208216,.00498752,97.7846,331.0986,32.8069,327.6225,0,U,40043,999,64758,.21188172E-3,.1801E-4,0
AEROCUBE 6A,2014-033AM,2026-06-30T10:45:32.937696,14.98217034,.00379341,97.7225,348.2575,331.7589,28.1576,0,U,40045,999,64860,.37354523E-3,.444E-4,0
AEROCUBE 6B,2014-033AN,2026-06-30T10:30:18.089568,14.99680047,.0037694,97.7220,348.0666,322.6349,37.2254,0,U,40046,999,64874,.32579106E-3,.4015E-4,0
CANX-4,2014-034C,2026-06-30T04:32:14.036640,14.81287257,.00121822,98.3105,56.9785,335.2162,24.8462,0,U,40055,999,64645,.12406375E-3,.911E-5,0
CANX-5,2014-034D,2026-06-30T14:13:22.800864,14.81305404,.00121558,98.3106,57.4412,334.0615,25.9985,0,U,40056,999,63732,.12434857E-3,.914E-5,0
UKUBE-1,2014-037F,2026-06-29T23:49:49.989216,15.13745679,.00032264,98.4232,185.6118,111.9544,248.2028,0,U,40074,999,65049,.44607441E-3,.7967E-4,0
BRITE-PL2 (HEWELIUSZ),2014-049B,2026-06-30T07:03:37.013760,14.94640537,.00151828,97.9110,293.3961,68.3877,291.8959,0,U,40119,999,64340,.14407238E-3,.1504E-4,0
AEROCUBE 5C,2015-058B,2026-06-30T10:43:46.882560,14.91505798,.0131416,64.7655,221.3382,58.0990,303.2827,0,U,40965,999,36763,.18614365E-3,.2025E-4,0
AEROCUBE 7,2015-058C,2026-06-30T11:20:07.301472,14.95802217,.01211409,64.7600,203.2013,56.4509,304.8105,0,U,40966,999,36794,.2749627E-3,.3385E-4,0
FOX-1A (AO-85),2015-058D,2026-06-30T13:35:05.245152,14.91023562,.01312928,64.7741,237.4052,51.3883,309.8898,0,U,40967,999,11556,.18700881E-3,.2007E-4,0
SINOD-D 1,2015-058E,2026-06-30T12:22:20.343072,14.95981461,.01199547,64.7731,217.1713,47.8242,313.2983,0,U,40968,999,11865,.26011595E-3,.3198E-4,0
SNAP-3 ALICE,2015-058G,2026-06-29T23:33:53.486784,15.63339354,.0024102,64.7502,59.6048,2.4470,357.6790,0,U,40970,999,11888,.14013837E-2,.133505E-2,0
LMRST-SAT,2015-058H,2026-06-30T12:35:39.580224,14.90640261,.01328863,64.7747,233.8969,53.4236,307.9018,0,U,40971,999,11554,.18094132E-3,.1923E-4,0
SNAP-3 EDDIE,2015-058J,2026-06-30T14:25:27.136992,15.64697747,.00247738,64.7412,48.0788,5.0851,355.0544,0,U,40972,999,12112,.14082149E-2,.141841E-2,0
PROPCUBE 3,2015-058K,2026-06-30T12:39:40.856544,14.94323629,.01248309,64.7666,210.8535,54.6546,306.6159,0,U,40973,999,11679,.2413501E-3,.2853E-4,0
BISONSAT,2015-058L,2026-06-30T05:22:04.870272,15.16529064,.00805529,64.7579,131.4853,41.9984,318.7278,0,U,40974,999,11759,.68824489E-3,.14471E-3,0
SNAP-3 JIMI,2015-058M,2026-06-30T08:51:51.622272,15.02426842,.01069131,64.7627,178.0607,50.0840,310.9614,0,U,40975,999,11620,.43287305E-3,.6333E-4,0
PROPCUBE 1 (FLORA),2015-058N,2026-06-30T11:48:22.962816,14.89273800,.01314978,64.7744,254.0001,55.7391,305.6091,0,U,40976,999,11824,.17638591E-3,.1792E-4,0
SINOD-D 3,2015-058P,2026-06-30T11:51:58.833216,14.94086768,.01200348,64.7711,234.2631,52.8555,308.3450,0,U,40977,999,11674,.23486741E-3,.272E-4,0
HORYU-4,2016-012D,2026-06-29T19:43:00.328512,16.16169270,.00099169,30.9811,345.1963,343.8353,16.1997,0,U,41340,999,57284,.11623376E-2,.1724866E-1,.25694954E-2
RAVAN,2016-067B,2026-06-30T05:35:44.908224,15.55958788,.00021616,97.9874,72.3235,338.8444,21.2719,0,U,41849,999,52972,.72176744E-3,.50253E-3,0
CELTEE 1,2016-067C,2026-06-30T13:45:10.095264,15.19809479,.00016752,98.0655,49.0530,127.0144,233.1243,0,U,41850,999,52791,.25791235E-3,.5447E-4,0
OPTICUBE 04,2016-067D,2026-06-30T09:38:11.141376,15.09715624,.00169509,98.0685,34.3741,74.6960,285.6139,0,U,41851,999,52716,.16781168E-3,.2642E-4,0
AEROCUBE 8D,2016-067E,2026-06-29T21:20:34.062432,15.24570829,.00050379,98.0666,52.0272,93.4048,266.7764,0,U,41852,999,52800,.29897079E-3,.7287E-4,0
AEROCUBE 8C,2016-067F,2026-06-30T04:11:31.643520,15.24825427,.00057492,98.0539,49.5454,32.4331,327.7257,0,U,41853,999,52804,.28522161E-3,.7002E-4,0
CORVUS BC2,2017-042X,2026-06-30T09:56:15.662688,15.06373686,.00143013,97.4068,342.2504,69.6054,290.6709,0,U,42846,999,48905,.20104795E-3,.2906E-4,0
CORVUS BC1,2017-042Y,2026-06-30T09:46:24.158784,15.06538934,.00127266,97.4101,343.0664,48.0535,312.1776,0,U,42847,999,48908,.24420698E-3,.3558E-4,0
MAKERSAT 0,2017-073D,2026-06-29T15:40:25.909824,15.32493741,.01048367,97.4608,63.2716,227.8569,131.3731,0,U,43016,999,46837,.41020827E-3,.15252E-3,0
